IRIDIUM 144             
1 43249U 18030A   24359.85017689  .00000005  00000+0 -53333-5 0  9998
2 43249  86.3988 155.8674 0001817  96.4650 263.6753 14.34217511352831
IRIDIUM 149             
1 43250U 18030B   24359.71698279  .00000607  00000+0  20973-3 0  9994
2 43250  86.3988 155.8965 0002196  97.3303 262.8143 14.34218939352831
IRIDIUM 157             
1 43251U 18030C   24359.87553206  .00000714  00000+0  24781-3 0  9992
2 43251  86.3991 155.8714 0002131  92.5387 267.6053 14.34225812352837
IRIDIUM 140             
1 43252U 18030D   24359.89457197  .00000635  00000+0  21970-3 0  9996
2 43252  86.3988 155.8772 0001898  92.6298 267.5115 14.34219163352895
IRIDIUM 145             
1 43253U 18030E   24359.88188833  .00000738  00000+0  25631-3 0  9996
2 43253  86.3987 155.8557 0001739 102.6930 257.4460 14.34219768352820
IRIDIUM 146             
1 43254U 18030F   24359.86286176  .00000089  00000+0  24594-4 0  9991
2 43254  86.3988 155.8776 0001777 100.3743 259.7653 14.34217243352830
IRIDIUM 148             
1 43255U 18030G   24359.90091754  .00000040  00000+0  71775-5 0  9994
2 43255  86.3990 155.8966 0002033  99.2860 260.8566 14.34217354352870
IRIDIUM 142             
1 43256U 18030H   24359.86920439 -.00000169  00000+0 -67327-4 0  9992
2 43256  86.3992 155.8189 0001840 107.4737 252.6660 14.34216978352831
